0 FENGYUN 1C DEB
1 30330U 99025AAR 13281.54110492  .00000873  00000-0  86997-3 0  9232
2 30330 098.8999 128.4440 0209874 129.3942 286.3549 13.71216624335108
0 FENGYUN 1C DEB
1 30330U 99025AAR 13282.86689980  .00000876  00000-0  87276-3 0  9246
2 30330 098.8997 129.6741 0209925 125.8899 350.9887 13.71221318335280
0 FENGYUN 1C DEB
1 30330U 99025AAR 13284.04347546  .00001020  00000-0  10095-2 0  9254
2 30330 098.8994 130.7658 0209957 122.7869 039.0275 13.71223343335449
0 FENGYUN 1C DEB
1 30330U 99025AAR 13285.84893644  .00000974  00000-0  96533-3 0  9268
2 30330 098.8991 132.4410 0210032 118.0138 311.5242 13.71226935335682
0 FENGYUN 1C DEB
1 30330U 99025AAR 13287.17259088  .00001045  00000-0  10334-2 0  9279
2 30330 098.8988 133.6691 0210073 114.5198 005.6347 13.71229706335871
0 FENGYUN 1C DEB
1 30330U 99025AAR 13288.54576391  .00001209  00000-0  11890-2 0  9281
2 30330 098.8986 134.9431 0210110 110.8951 304.2074 13.71233888336066
0 FENGYUN 1C DEB
1 30330U 99025AAR 13291.53728501  .00001161  00000-0  11429-2 0  9292
2 30330 098.8984 137.7184 0210218 102.9946 311.7123 13.71242071336472
0 FENGYUN 1C DEB
1 30330U 99025AAR 13292.85363590  .00001272  00000-0  12485-2 0  9309
2 30330 098.8984 138.9396 0210263 099.5221 329.8408 13.71245050336653
0 FENGYUN 1C DEB
1 30330U 99025AAR 13294.03983786  .00001257  00000-0  12341-2 0  9311
2 30330 098.8984 140.0400 0210279 096.3989 065.4973 13.71248320336817
0 FENGYUN 1C DEB
1 30330U 99025AAR 13295.12476138  .00001322  00000-0  12966-2 0  9327
2 30330 098.8984 141.0464 0210324 093.5354 021.2162 13.71250860336962
